STARLINK-36078          
1 67050U 25294W   25365.58335648 -.00083498  00000+0 -14308-2 0  9994
2 67050  43.0006  68.1328 0001278 278.3238 331.5179 15.50615650  3244
STARLINK-35706          
1 67051U 25294X   25365.58335648 -.00034495  00000+0 -58477-3 0  9994
2 67051  43.0006  68.1282 0001405 278.4760 333.3109 15.50577997  3320
STARLINK-35720          
1 67052U 25294Y   25365.58335648 -.00068714  00000+0 -11752-2 0  9990
2 67052  43.0006  68.1235 0001336 285.0270 328.6878 15.50592958  3315
STARLINK-35739          
1 67053U 25294Z   25365.58335648 -.00011788  00000+0 -19575-3 0  9992
2 67053  43.0009  68.1182 0001456 285.1891 330.5078 15.50531031  2962
STARLINK-35754          
1 67054U 25294AA  25365.58335648  .00006194  00000+0  11147-3 0  9993
2 67054  43.0006  68.1134 0001394 279.8401 337.7318 15.50537678  3134
STARLINK-35790          
1 67055U 25294AB  25365.58335648 -.00038775  00000+0 -65825-3 0  9998
2 67055  43.0004  68.1082 0001436 278.1361 341.3097 15.50584954  3324
STARLINK-36143          
1 67056U 25294AC  25365.58335648 -.00006386  00000+0 -10317-3 0  9998
2 67056  43.0004  68.0932 0001337 281.8865 343.3110 15.50564987  3320
STARLINK-36141          
1 67057U 25294AD  25365.58335648  .00052912  00000+0  90362-3 0  9991
2 67057  43.0004  68.0990 0001432 278.6671 344.6501 15.50517633  3245
STARLINK-35767          
1 67058U 25294AE  25365.58335648 -.00031489  00000+0 -53315-3 0  9997
2 67058  43.0007  68.1036 0001077 270.4773 350.8942 15.50576652  3131
HULIANWANG DIGUI-119    
1 67059U 25295A   25365.49806131  .00000502  00000+0  28248-3 0  9996
2 67059  50.0045 293.1335 0013934 312.8140  47.1602 14.24623001  2799
HULIANWANG DIGUI-120    
1 67060U 25295B   25365.56332145  .00000556  00000+0  30591-3 0  9998
2 67060  50.0053 292.8124 0013305 313.6705  46.3105 14.24624771  2806
HULIANWANG DIGUI-121    
1 67061U 25295C   25365.56509417  .00000548  00000+0  30227-3 0  9994
2 67061  50.0016 292.8079 0013212 312.8900  47.0903 14.24641642  2800
