CCSDS_OMM_VERS = 2.0
CREATION_DATE  = 
ORIGINATOR     = 

OBJECT_NAME    = STARLINK-36078
OBJECT_ID      = 2025-294W
CENTER_NAME    = EARTH
REF_FRAME      = TEME
TIME_SYSTEM    = UTC
MEAN_ELEMENT_THEORY = SGP/SGP4

EPOCH          = 2025-12-31T14:00:01.999872
MEAN_MOTION    = 15.50615650
ECCENTRICITY   = .00012788
INCLINATION    = 43.0006
RA_OF_ASC_NODE = 68.1328
ARG_OF_PERICENTER = 278.3238
MEAN_ANOMALY   = 331.5179

EPHEMERIS_TYPE = 0
CLASSIFICATION_TYPE = U
NORAD_CAT_ID   = 67050
ELEMENT_SET_NO = 999
REV_AT_EPOCH   = 324
BSTAR          = -.14307998E-2
MEAN_MOTION_DOT = -.83498E-3
MEAN_MOTION_DDOT = 0

CCSDS_OMM_VERS = 2.0
CREATION_DATE  = 
ORIGINATOR     = 

OBJECT_NAME    = STARLINK-35706
OBJECT_ID      = 2025-294X
CENTER_NAME    = EARTH
REF_FRAME      = TEME
TIME_SYSTEM    = UTC
MEAN_ELEMENT_THEORY = SGP/SGP4

EPOCH          = 2025-12-31T14:00:01.999872
MEAN_MOTION    = 15.50577997
ECCENTRICITY   = .00014052
INCLINATION    = 43.0006
RA_OF_ASC_NODE = 68.1282
ARG_OF_PERICENTER = 278.4760
MEAN_ANOMALY   = 333.3109

EPHEMERIS_TYPE = 0
CLASSIFICATION_TYPE = U
NORAD_CAT_ID   = 67051
ELEMENT_SET_NO = 999
REV_AT_EPOCH   = 332
BSTAR          = -.58477032E-3
MEAN_MOTION_DOT = -.34495E-3
MEAN_MOTION_DDOT = 0

CCSDS_OMM_VERS = 2.0
CREATION_DATE  = 
ORIGINATOR     = 

OBJECT_NAME    = STARLINK-35720
OBJECT_ID      = 2025-294Y
CENTER_NAME    = EARTH
REF_FRAME      = TEME
TIME_SYSTEM    = UTC
MEAN_ELEMENT_THEORY = SGP/SGP4

EPOCH          = 2025-12-31T14:00:01.999872
MEAN_MOTION    = 15.50592958
ECCENTRICITY   = .00013366
INCLINATION    = 43.0006
RA_OF_ASC_NODE = 68.1235
ARG_OF_PERICENTER = 285.0270
MEAN_ANOMALY   = 328.6878

EPHEMERIS_TYPE = 0
CLASSIFICATION_TYPE = U
NORAD_CAT_ID   = 67052
ELEMENT_SET_NO = 999
REV_AT_EPOCH   = 331
BSTAR          = -.11751584E-2
MEAN_MOTION_DOT = -.68714E-3
MEAN_MOTION_DDOT = 0

CCSDS_OMM_VERS = 2.0
CREATION_DATE  = 
ORIGINATOR     = 

OBJECT_NAME    = STARLINK-35739
OBJECT_ID      = 2025-294Z
CENTER_NAME    = EARTH
REF_FRAME      = TEME
TIME_SYSTEM    = UTC
MEAN_ELEMENT_THEORY = SGP/SGP4

EPOCH          = 2025-12-31T14:00:01.999872
MEAN_MOTION    = 15.50531031
ECCENTRICITY   = .00014567
INCLINATION    = 43.0009
RA_OF_ASC_NODE = 68.1182
ARG_OF_PERICENTER = 285.1891
MEAN_ANOMALY   = 330.5078

EPHEMERIS_TYPE = 0
CLASSIFICATION_TYPE = U
NORAD_CAT_ID   = 67053
ELEMENT_SET_NO = 999
REV_AT_EPOCH   = 296
BSTAR          = -.19575093E-3
MEAN_MOTION_DOT = -.11788E-3
MEAN_MOTION_DDOT = 0

CCSDS_OMM_VERS = 2.0
CREATION_DATE  = 
ORIGINATOR     = 

OBJECT_NAME    = STARLINK-35754
OBJECT_ID      = 2025-294AA
CENTER_NAME    = EARTH
REF_FRAME      = TEME
TIME_SYSTEM    = UTC
MEAN_ELEMENT_THEORY = SGP/SGP4

EPOCH          = 2025-12-31T14:00:01.999872
MEAN_MOTION    = 15.50537678
ECCENTRICITY   = .00013947
INCLINATION    = 43.0006
RA_OF_ASC_NODE = 68.1134
ARG_OF_PERICENTER = 279.8401
MEAN_ANOMALY   = 337.7318

EPHEMERIS_TYPE = 0
CLASSIFICATION_TYPE = U
NORAD_CAT_ID   = 67054
ELEMENT_SET_NO = 999
REV_AT_EPOCH   = 313
BSTAR          = .11147298E-3
MEAN_MOTION_DOT = .6194E-4
MEAN_MOTION_DDOT = 0

CCSDS_OMM_VERS = 2.0
CREATION_DATE  = 
ORIGINATOR     = 

OBJECT_NAME    = STARLINK-35790
OBJECT_ID      = 2025-294AB
CENTER_NAME    = EARTH
REF_FRAME      = TEME
TIME_SYSTEM    = UTC
MEAN_ELEMENT_THEORY = SGP/SGP4

EPOCH          = 2025-12-31T14:00:01.999872
MEAN_MOTION    = 15.50584954
ECCENTRICITY   = .00014368
INCLINATION    = 43.0004
RA_OF_ASC_NODE = 68.1082
ARG_OF_PERICENTER = 278.1361
MEAN_ANOMALY   = 341.3097

EPHEMERIS_TYPE = 0
CLASSIFICATION_TYPE = U
NORAD_CAT_ID   = 67055
ELEMENT_SET_NO = 999
REV_AT_EPOCH   = 332
BSTAR          = -.65824709E-3
MEAN_MOTION_DOT = -.38775E-3
MEAN_MOTION_DDOT = 0

CCSDS_OMM_VERS = 2.0
CREATION_DATE  = 
ORIGINATOR     = 

OBJECT_NAME    = STARLINK-36143
OBJECT_ID      = 2025-294AC
CENTER_NAME    = EARTH
REF_FRAME      = TEME
TIME_SYSTEM    = UTC
MEAN_ELEMENT_THEORY = SGP/SGP4

EPOCH          = 2025-12-31T14:00:01.999872
MEAN_MOTION    = 15.50564987
ECCENTRICITY   = .00013372
INCLINATION    = 43.0004
RA_OF_ASC_NODE = 68.0932
ARG_OF_PERICENTER = 281.8865
MEAN_ANOMALY   = 343.3110

EPHEMERIS_TYPE = 0
CLASSIFICATION_TYPE = U
NORAD_CAT_ID   = 67056
ELEMENT_SET_NO = 999
REV_AT_EPOCH   = 332
BSTAR          = -.10316918E-3
MEAN_MOTION_DOT = -.6386E-4
MEAN_MOTION_DDOT = 0

CCSDS_OMM_VERS = 2.0
CREATION_DATE  = 
ORIGINATOR     = 

OBJECT_NAME    = STARLINK-36141
OBJECT_ID      = 2025-294AD
CENTER_NAME    = EARTH
REF_FRAME      = TEME
TIME_SYSTEM    = UTC
MEAN_ELEMENT_THEORY = SGP/SGP4

EPOCH          = 2025-12-31T14:00:01.999872
MEAN_MOTION    = 15.50517633
ECCENTRICITY   = .00014323
INCLINATION    = 43.0004
RA_OF_ASC_NODE = 68.0990
ARG_OF_PERICENTER = 278.6671
MEAN_ANOMALY   = 344.6501

EPHEMERIS_TYPE = 0
CLASSIFICATION_TYPE = U
NORAD_CAT_ID   = 67057
ELEMENT_SET_NO = 999
REV_AT_EPOCH   = 324
BSTAR          = .90361594E-3
MEAN_MOTION_DOT = .52912E-3
MEAN_MOTION_DDOT = 0

CCSDS_OMM_VERS = 2.0
CREATION_DATE  = 
ORIGINATOR     = 

OBJECT_NAME    = STARLINK-35767
OBJECT_ID      = 2025-294AE
CENTER_NAME    = EARTH
REF_FRAME      = TEME
TIME_SYSTEM    = UTC
MEAN_ELEMENT_THEORY = SGP/SGP4

EPOCH          = 2025-12-31T14:00:01.999872
MEAN_MOTION    = 15.50576652
ECCENTRICITY   = .00010773
INCLINATION    = 43.0007
RA_OF_ASC_NODE = 68.1036
ARG_OF_PERICENTER = 270.4773
MEAN_ANOMALY   = 350.8942

EPHEMERIS_TYPE = 0
CLASSIFICATION_TYPE = U
NORAD_CAT_ID   = 67058
ELEMENT_SET_NO = 999
REV_AT_EPOCH   = 313
BSTAR          = -.5331456E-3
MEAN_MOTION_DOT = -.31489E-3
MEAN_MOTION_DDOT = 0

CCSDS_OMM_VERS = 2.0
CREATION_DATE  = 
ORIGINATOR     = 

OBJECT_NAME    = HULIANWANG DIGUI-119
OBJECT_ID      = 2025-295A
CENTER_NAME    = EARTH
REF_FRAME      = TEME
TIME_SYSTEM    = UTC
MEAN_ELEMENT_THEORY = SGP/SGP4

EPOCH          = 2025-12-31T11:57:12.497184
MEAN_MOTION    = 14.24623001
ECCENTRICITY   = .00139348
INCLINATION    = 50.0045
RA_OF_ASC_NODE = 293.1335
ARG_OF_PERICENTER = 312.8140
MEAN_ANOMALY   = 47.1602

EPHEMERIS_TYPE = 0
CLASSIFICATION_TYPE = U
NORAD_CAT_ID   = 67059
ELEMENT_SET_NO = 999
REV_AT_EPOCH   = 279
BSTAR          = .28248031E-3
MEAN_MOTION_DOT = .502E-5
MEAN_MOTION_DDOT = 0

CCSDS_OMM_VERS = 2.0
CREATION_DATE  = 
ORIGINATOR     = 

OBJECT_NAME    = HULIANWANG DIGUI-120
OBJECT_ID      = 2025-295B
CENTER_NAME    = EARTH
REF_FRAME      = TEME
TIME_SYSTEM    = UTC
MEAN_ELEMENT_THEORY = SGP/SGP4

EPOCH          = 2025-12-31T13:31:10.973280
MEAN_MOTION    = 14.24624771
ECCENTRICITY   = .00133051
INCLINATION    = 50.0053
RA_OF_ASC_NODE = 292.8124
ARG_OF_PERICENTER = 313.6705
MEAN_ANOMALY   = 46.3105

EPHEMERIS_TYPE = 0
CLASSIFICATION_TYPE = U
NORAD_CAT_ID   = 67060
ELEMENT_SET_NO = 999
REV_AT_EPOCH   = 280
BSTAR          = .30591384E-3
MEAN_MOTION_DOT = .556E-5
MEAN_MOTION_DDOT = 0

CCSDS_OMM_VERS = 2.0
CREATION_DATE  = 
ORIGINATOR     = 

OBJECT_NAME    = HULIANWANG DIGUI-121
OBJECT_ID      = 2025-295C
CENTER_NAME    = EARTH
REF_FRAME      = TEME
TIME_SYSTEM    = UTC
MEAN_ELEMENT_THEORY = SGP/SGP4

EPOCH          = 2025-12-31T13:33:44.136288
MEAN_MOTION    = 14.24641642
ECCENTRICITY   = .00132122
INCLINATION    = 50.0016
RA_OF_ASC_NODE = 292.8079
ARG_OF_PERICENTER = 312.8900
MEAN_ANOMALY   = 47.0903

EPHEMERIS_TYPE = 0
CLASSIFICATION_TYPE = U
NORAD_CAT_ID   = 67061
ELEMENT_SET_NO = 999
REV_AT_EPOCH   = 280
BSTAR          = .30227163E-3
MEAN_MOTION_DOT = .548E-5
MEAN_MOTION_DDOT = 0

